IRIDIUM 166             
1 43570U 18061B   24034.51423563  .00000059  00000+0  13976-4 0  9990
2 43570  86.3928  58.0948 0001824  94.9771 265.1633 14.34215907289464
IRIDIUM 158             
1 43571U 18061C   24033.57553421  .00000328  00000+0  10995-3 0  9999
2 43571  86.3927  58.4959 0002126  95.9520 264.1918 14.34216581289294
IRIDIUM 165             
1 43572U 18061D   24034.50789598  .00000153  00000+0  47419-4 0  9998
2 43572  86.3930  58.1361 0002169 100.4054 259.7386 14.34216915289452
IRIDIUM 155             
1 43573U 18061E   24034.46983939  .00000338  00000+0  11368-3 0  9997
2 43573  86.3924  58.0637 0002027  84.8527 275.2900 14.34217090289421
IRIDIUM 154             
1 43574U 18061F   24033.89266579 -.00000207  00000+0 -81136-4 0  9996
2 43574  86.3925  58.3963 0002329  89.6304 270.5159 14.34217476289386
IRIDIUM 163             
1 43575U 18061G   24034.50155471  .00000201  00000+0  64887-4 0  9990
2 43575  86.3927  58.0843 0002289  89.2297 270.9161 14.34217218289443
IRIDIUM 156             
1 43576U 18061H   24033.56918640  .00000304  00000+0  10153-3 0  9991
2 43576  86.3928  58.4804 0002017  97.0372 263.1053 14.34221182289300
IRIDIUM 164             
1 43577U 18061J   24033.89900503  .00000121  00000+0  36269-4 0  9991
2 43577  86.3928  58.3693 0002271  97.6873 262.4580 14.34216316289399
